OBJECT_NAME,OBJECT_ID,EPOCH,MEAN_MOTION,ECCENTRICITY,INCLINATION,RA_OF_ASC_NODE,ARG_OF_PERICENTER,MEAN_ANOMALY,EPHEMERIS_TYPE,CLASSIFICATION_TYPE,NORAD_CAT_ID,ELEMENT_SET_NO,REV_AT_EPOCH,BSTAR,MEAN_MOTION_DOT,MEAN_MOTION_DDOT
BIRKELAND,2023-001G,2026-06-19T22:34:06.202848,15.40114308,.00083532,97.3340,238.9175,97.5293,262.6903,0,U,55015,999,19277,.1864022E-3,.7388E-4,0
ION SCV-008,2023-001AU,2026-06-19T18:58:57.572832,15.28601157,.00147595,97.5711,267.1525,9.4749,350.6766,0,U,55051,999,19173,.18402127E-3,.5056E-4,0
ION SCV-007,2023-001BD,2026-06-19T18:30:42.844608,14.77555324,.0011614,97.9006,233.7351,333.5376,26.5240,0,U,55060,999,18663,.49921257E-4,.306E-5,0
HUYGENS,2023-001CN,2026-06-19T22:34:13.482912,15.40115729,.00109781,97.3245,238.1438,78.0325,282.2151,0,U,55093,999,19279,.19402533E-3,.7701E-4,0
SHARJAHSAT-1,2023-001CZ,2026-06-19T22:55:15.521664,15.49155834,.00069169,97.3168,239.7594,95.4281,264.7759,0,U,55104,999,19292,.33186554E-3,.17994E-3,0
HORUS 1,2023-025A,2026-06-19T23:27:42.303744,15.23285800,.00015383,97.3459,245.5148,146.8596,213.2737,0,U,55690,999,18447,.18960968E-3,.4427E-4,0
HORUS 2,2023-032A,2026-06-19T22:43:59.185056,15.23450389,.0002295,97.3530,246.2930,103.0524,257.0970,0,U,55844,999,18190,.20189354E-3,.4741E-4,0
GLOBAL-19,2023-041B,2026-06-19T12:01:50.369952,15.38063484,.00083333,42.0000,188.3911,19.0119,341.1030,0,U,55982,999,18228,.24203159E-3,.9023E-4,0
BRO-9,2023-054H,2026-06-19T22:25:09.829056,16.12415579,.00098101,97.2893,89.7816,175.1713,184.9668,0,U,56185,999,17953,.93650602E-3,.1015587E-1,.64773067E-3
ION SCV-010,2023-054Q,2026-06-19T21:55:40.244736,15.26215400,.00124631,97.3776,60.3801,187.1796,172.9266,0,U,56192,999,17661,.13958502E-3,.3546E-4,0
TELEOS-2,2023-057C,2026-06-19T21:19:48.148608,14.96429159,.00001743,9.9869,184.5084,194.6500,165.3708,0,U,56310,999,17320,.2764E-8,.687E-5,0
SNIPE 4,2023-072B,2026-06-19T22:31:49.196640,15.42439605,.00041407,97.5249,17.0308,326.2664,33.8319,0,U,56744,999,17053,.40512574E-3,.17455E-3,0
SNIPE 2,2023-072C,2026-06-19T21:48:48.076128,15.46962907,.00038,97.5243,20.0626,4.4787,355.6496,0,U,56745,999,17066,.4550743E-3,.22891E-3,0
2023-072G,2023-072G,2026-06-19T23:12:57.992832,15.50706953,.000243,97.4903,18.9298,357.9132,2.2108,0,U,56749,999,17089,.44550616E-3,.25547E-3,0
GEISAT PRECURSOR,2023-084C,2026-06-19T21:24:45.223776,15.34681643,.00046955,97.6231,311.9341,347.1651,12.9471,0,U,56934,999,16794,.18593926E-3,.6166E-4,0
BLACKJACK ACES-3,2023-084U,2026-06-19T19:20:40.132320,15.18491443,.00023674,97.6217,306.0163,31.1133,329.0240,0,U,56950,999,16756,.21330268E-3,.4328E-4,0
BLACKJACK ACES-2,2023-084Z,2026-06-19T10:00:03.739680,15.18500559,.00009325,97.6210,305.7089,97.1556,262.9783,0,U,56955,999,16751,.17316658E-3,.3501E-4,0
BLACKJACK ACES-1,2023-084AA,2026-06-19T09:42:29.248416,15.18551517,.00011253,97.6206,305.4707,109.4319,250.7036,0,U,56956,999,11723,.27585426E-3,.5629E-4,0
ION SCV-011,2023-084AB,2026-06-19T13:16:52.573728,15.28864897,.00078388,98.1383,358.0514,38.3079,321.8714,0,U,56957,999,16617,.14965991E-3,.4112E-4,0
GHOST-3,2023-084AC,2026-06-19T08:40:28.785792,15.47939306,.0005457,97.6220,319.0497,284.4775,75.5869,0,U,56958,999,16835,.28851724E-3,.14964E-3,0
TOMORROW-R2,2023-084AG,2026-06-19T21:40:52.367232,16.12087573,.00090289,97.6051,335.5604,244.6365,115.3984,0,U,56962,999,16949,.67937638E-3,.724437E-2,.29910709E-3
AFR-1,2023-084AJ,2026-06-19T21:59:28.287168,15.28573915,.00096879,97.6281,307.6728,336.7920,23.2880,0,U,56964,999,16764,.13557007E-3,.3693E-4,0
METEOR-M2 3,2023-091A,2026-06-19T23:30:05.090976,14.24047012,.00045043,98.6081,225.9005,148.3465,211.7985,0,U,57166,999,15491,.11728673E-4,-.16E-6,0
UMKA 1 (RS40S),2023-091G,2026-06-19T22:09:18.285120,15.20844234,.00143262,97.5046,229.6100,109.1797,251.0990,0,U,57172,999,16442,.23086238E-3,.5039E-4,0
2023-091H,2023-091H,2026-06-19T22:22:25.426272,15.28685999,.00112864,97.5043,234.1466,104.8395,255.4095,0,U,57173,999,16472,.35032216E-3,.9716E-4,0
2023-091J,2023-091J,2026-06-19T21:33:32.358816,15.13942255,.00145131,97.5051,223.9563,134.4461,225.7961,0,U,57174,999,16404,.1801225E-3,.3206E-4,0
CUBEBEL 2 (EU11S),2023-091K,2026-06-19T22:22:20.174016,15.29208413,.00112902,97.5046,234.1738,106.5216,253.7266,0,U,57175,999,16472,.40618092E-3,.11462E-3,0
SITRO-AIS 5 (KATYS),2023-091L,2026-06-19T22:46:01.553376,15.29509306,.00127157,97.5055,234.8746,94.9331,265.3361,0,U,57176,999,16476,.35273035E-3,.10039E-3,0
ZORKIY-2M 1,2023-091M,2026-06-19T21:49:29.041824,15.20932711,.00148463,97.5086,229.8661,106.7300,253.5565,0,U,57177,999,16441,.2711097E-3,.5947E-4,0
CUBESX-HSE 3 (RS42S),2023-091N,2026-06-19T22:02:36.639168,15.31271778,.00119616,97.5086,236.5404,86.4186,273.8423,0,U,57178,999,16484,.3773283E-3,.11347E-3,0
