BIRKELAND               
1 55015U 23001G   26170.94034957  .00007388  00000+0  18640-3 0  9996
2 55015  97.3340 238.9175 0008353  97.5293 262.6903 15.40114308192774
ION SCV-008             
1 55051U 23001AU  26170.79094413  .00005056  00000+0  18402-3 0  9998
2 55051  97.5711 267.1525 0014759   9.4749 350.6766 15.28601157191735
ION SCV-007             
1 55060U 23001BD  26170.77132922  .00000306  00000+0  49921-4 0  9998
2 55060  97.9006 233.7351 0011614 333.5376  26.5240 14.77555324186632
HUYGENS                 
1 55093U 23001CN  26170.94043383  .00007701  00000+0  19403-3 0  9992
2 55093  97.3245 238.1438 0010978  78.0325 282.2151 15.40115729192797
SHARJAHSAT-1            
1 55104U 23001CZ  26170.95504076  .00017994  00000+0  33187-3 0  9997
2 55104  97.3168 239.7594 0006916  95.4281 264.7759 15.49155834192929
HORUS 1                 
1 55690U 23025A   26170.97757296  .00004427  00000+0  18961-3 0  9999
2 55690  97.3459 245.5148 0001538 146.8596 213.2737 15.23285800184472
HORUS 2                 
1 55844U 23032A   26170.94721279  .00004741  00000+0  20189-3 0  9991
2 55844  97.3530 246.2930 0002295 103.0524 257.0970 15.23450389181903
GLOBAL-19               
1 55982U 23041B   26170.50127743  .00009023  00000+0  24203-3 0  9991
2 55982  42.0000 188.3911 0008333  19.0119 341.1030 15.38063484182281
BRO-9                   
1 56185U 23054H   26170.93414154  .01015587  64773-3  93651-3 0  9990
2 56185  97.2893  89.7816 0009810 175.1713 184.9668 16.12415579179535
ION SCV-010             
1 56192U 23054Q   26170.91366024  .00003546  00000+0  13959-3 0  9991
2 56192  97.3776  60.3801 0012463 187.1796 172.9266 15.26215400176617
TELEOS-2                
1 56310U 23057C   26170.88875172  .00000687  00000+0  27640-8 0  9991
2 56310   9.9869 184.5084 0000174 194.6500 165.3708 14.96429159173208
SNIPE 4                 
1 56744U 23072B   26170.93876385  .00017455  00000+0  40513-3 0  9992
2 56744  97.5249  17.0308 0004140 326.2664  33.8319 15.42439605170533
SNIPE 2                 
1 56745U 23072C   26170.90888977  .00022891  00000+0  45507-3 0  9998
2 56745  97.5243  20.0626 0003800   4.4787 355.6496 15.46962907170663
2023-072G               
1 56749U 23072G   26170.96733788  .00025547  00000+0  44551-3 0  9996
2 56749  97.4903  18.9298 0002430 357.9132   2.2108 15.50706953170890
GEISAT PRECURSOR        
1 56934U 23084C   26170.89219009  .00006166  00000+0  18594-3 0  9996
2 56934  97.6231 311.9341 0004695 347.1651  12.9471 15.34681643167942
BLACKJACK ACES-3        
1 56950U 23084U   26170.80602005  .00004328  00000+0  21330-3 0  9997
2 56950  97.6217 306.0163 0002367  31.1133 329.0240 15.18491443167563
BLACKJACK ACES-2        
1 56955U 23084Z   26170.41670995  .00003501  00000+0  17317-3 0  9994
2 56955  97.6210 305.7089 0000932  97.1556 262.9783 15.18500559167512
BLACKJACK ACES-1        
1 56956U 23084AA  26170.40450519  .00005629  00000+0  27585-3 0  9993
2 56956  97.6206 305.4707 0001125 109.4319 250.7036 15.18551517117231
ION SCV-011             
1 56957U 23084AB  26170.55338627  .00004112  00000+0  14966-3 0  9990
2 56957  98.1383 358.0514 0007838  38.3079 321.8714 15.28864897166173
GHOST-3                 
1 56958U 23084AC  26170.36144428  .00014964  00000+0  28852-3 0  9999
2 56958  97.6220 319.0497 0005457 284.4775  75.5869 15.47939306168352
TOMORROW-R2             
1 56962U 23084AG  26170.90338388  .00724437  29911-3  67938-3 0  9991
2 56962  97.6051 335.5604 0009028 244.6365 115.3984 16.12087573169493
AFR-1                   
1 56964U 23084AJ  26170.91629962  .00003693  00000+0  13557-3 0  9991
2 56964  97.6281 307.6728 0009687 336.7920  23.2880 15.28573915167641
METEOR-M2 3             
1 57166U 23091A   26170.97922559 -.00000016  00000+0  11729-4 0  9995
2 57166  98.6081 225.9005 0004504 148.3465 211.7985 14.24047012154914
UMKA 1 (RS40S)          
1 57172U 23091G   26170.92312830  .00005039  00000+0  23086-3 0  9999
2 57172  97.5046 229.6100 0014326 109.1797 251.0990 15.20844234164421
2023-091H               
1 57173U 23091H   26170.93223873  .00009716  00000+0  35032-3 0  9999
2 57173  97.5043 234.1466 0011286 104.8395 255.4095 15.28685999164729
2023-091J               
1 57174U 23091J   26170.89829119  .00003206  00000+0  18012-3 0  9997
2 57174  97.5051 223.9563 0014513 134.4461 225.7961 15.13942255164044
CUBEBEL 2 (EU11S)       
1 57175U 23091K   26170.93217794  .00011462  00000+0  40618-3 0  9993
2 57175  97.5046 234.1738 0011290 106.5216 253.7266 15.29208413164726
SITRO-AIS 5 (KATYS)     
1 57176U 23091L   26170.94862909  .00010039  00000+0  35273-3 0  9999
2 57176  97.5055 234.8746 0012715  94.9331 265.3361 15.29509306164768
ZORKIY-2M 1             
1 57177U 23091M   26170.90936391  .00005947  00000+0  27111-3 0  9997
2 57177  97.5086 229.8661 0014846 106.7300 253.5565 15.20932711164416
CUBESX-HSE 3 (RS42S)    
1 57178U 23091N   26170.91847962  .00011347  00000+0  37733-3 0  9996
2 57178  97.5086 236.5404 0011961  86.4186 273.8423 15.31271778164844
